{"type": "FeatureCollection", "features": [{"type": "Feature", "properties": {"norad_id": 25590, "name": "COSMOS 2361", "group": "musson", "lat": -39.18120908187738, "lon": -31.14154529959886, "alt_km": 995.1022558838358, "timestamp": "2025-12-25T11:37:44.705128+00:00", "meta": {"OBJECT_NAME": "COSMOS 2361", "OBJECT_ID": "1998-076A", "EPOCH": "2025-12-25T01:40:40.592064", "MEAN_MOTION": 13.73218824, "ECCENTRICITY": 0.0030318, "INCLINATION": 82.9345, "RA_OF_ASC_NODE": 334.9664, "ARG_OF_PERICENTER": 229.9139, "MEAN_ANOMALY": 201.6823, "EPHEMERIS_TYPE": 0, "CLASSIFICATION_TYPE": "U", "NORAD_CAT_ID": 25590, "ELEMENT_SET_NO": 999, "REV_AT_EPOCH": 35280, "BSTAR": 4.9102e-05, "MEAN_MOTION_DOT": 6e-07, "MEAN_MOTION_DDOT": 0}, "tle": {"line1": "1 25590U 98076A   25359.06991426  .00000060  00000+0  49102-4 0  9997", "line2": "2 25590  82.9345 334.9664 0030318 229.9139 201.6823 13.73218824352808"}}, "geometry": {"type": "Point", "coordinates": [-31.14154529959886, -39.18120908187738]}}, {"type": "Feature", "properties": {"norad_id": 26818, "name": "COSMOS 2378", "group": "musson", "lat": 73.25715592083905, "lon": 14.648228397770097, "alt_km": 979.51172792753, "timestamp": "2025-12-25T11:37:44.705149+00:00", "meta": {"OBJECT_NAME": "COSMOS 2378", "OBJECT_ID": "2001-023A", "EPOCH": "2025-12-25T02:52:27.994080", "MEAN_MOTION": 13.7414296, "ECCENTRICITY": 0.0033185, "INCLINATION": 82.9272, "RA_OF_ASC_NODE": 350.5445, "ARG_OF_PERICENTER": 170.2004, "MEAN_ANOMALY": 261.4901, "EPHEMERIS_TYPE": 0, "CLASSIFICATION_TYPE": "U", "NORAD_CAT_ID": 26818, "ELEMENT_SET_NO": 999, "REV_AT_EPOCH": 23093, "BSTAR": 3.3957e-05, "MEAN_MOTION_DOT": 4.7e-07, "MEAN_MOTION_DDOT": 0}, "tle": {"line1": "1 26818U 01023A   25359.11976845  .00000047  00000+0  33957-4 0  9997", "line2": "2 26818  82.9272 350.5445 0033185 170.2004 261.4901 13.74142960230934"}}, "geometry": {"type": "Point", "coordinates": [14.648228397770097, 73.25715592083905]}}, {"type": "Feature", "properties": {"norad_id": 27436, "name": "COSMOS 2389", "group": "musson", "lat": -31.787524170306675, "lon": -66.84691597467534, "alt_km": 968.5813434935635, "timestamp": "2025-12-25T11:37:44.705162+00:00", "meta": {"OBJECT_NAME": "COSMOS 2389", "OBJECT_ID": "2002-026A", "EPOCH": "2025-12-24T22:06:49.893984", "MEAN_MOTION": 13.75155957, "ECCENTRICITY": 0.0047094, "INCLINATION": 82.9513, "RA_OF_ASC_NODE": 297.9672, "ARG_OF_PERICENTER": 27.4918, "MEAN_ANOMALY": 34.7494, "EPHEMERIS_TYPE": 0, "CLASSIFICATION_TYPE": "U", "NORAD_CAT_ID": 27436, "ELEMENT_SET_NO": 999, "REV_AT_EPOCH": 18316, "BSTAR": 6.8126e-05, "MEAN_MOTION_DOT": 8.1e-07, "MEAN_MOTION_DDOT": 0}, "tle": {"line1": "1 27436U 02026A   25358.92141081  .00000081  00000+0  68126-4 0  9996", "line2": "2 27436  82.9513 297.9672 0047094  27.4918  34.7494 13.75155957183167"}}, "geometry": {"type": "Point", "coordinates": [-66.84691597467534, -31.787524170306675]}}, {"type": "Feature", "properties": {"norad_id": 27818, "name": "COSMOS 2398", "group": "musson", "lat": 25.03302063929137, "lon": 79.99314590830059, "alt_km": 984.6473737076303, "timestamp": "2025-12-25T11:37:44.705174+00:00", "meta": {"OBJECT_NAME": "COSMOS 2398", "OBJECT_ID": "2003-023A", "EPOCH": "2025-12-25T04:36:51.041952", "MEAN_MOTION": 13.72387085, "ECCENTRICITY": 0.0032699, "INCLINATION": 82.9483, "RA_OF_ASC_NODE": 263.5223, "ARG_OF_PERICENTER": 78.6357, "MEAN_ANOMALY": 72.3991, "EPHEMERIS_TYPE": 0, "CLASSIFICATION_TYPE": "U", "NORAD_CAT_ID": 27818, "ELEMENT_SET_NO": 999, "REV_AT_EPOCH": 12987, "BSTAR": 7.0833e-05, "MEAN_MOTION_DOT": 8e-07, "MEAN_MOTION_DDOT": 0}, "tle": {"line1": "1 27818U 03023A   25359.19225743  .00000080  00000+0  70833-4 0  9993", "line2": "2 27818  82.9483 263.5223 0032699  78.6357  72.3991 13.72387085129872"}}, "geometry": {"type": "Point", "coordinates": [79.99314590830059, 25.03302063929137]}}, {"type": "Feature", "properties": {"norad_id": 28380, "name": "COSMOS 2407", "group": "musson", "lat": 9.585227904752115, "lon": 22.260247632164006, "alt_km": 1003.9121644079387, "timestamp": "2025-12-25T11:37:44.705185+00:00", "meta": {"OBJECT_NAME": "COSMOS 2407", "OBJECT_ID": "2004-028A", "EPOCH": "2025-12-25T02:40:13.473120", "MEAN_MOTION": 13.76315024, "ECCENTRICITY": 0.003974, "INCLINATION": 82.9593, "RA_OF_ASC_NODE": 203.7325, "ARG_OF_PERICENTER": 21.0232, "MEAN_ANOMALY": 100.5296, "EPHEMERIS_TYPE": 0, "CLASSIFICATION_TYPE": "U", "NORAD_CAT_ID": 28380, "ELEMENT_SET_NO": 999, "REV_AT_EPOCH": 7593, "BSTAR": 3.7652e-05, "MEAN_MOTION_DOT": 5.2e-07, "MEAN_MOTION_DDOT": 0}, "tle": {"line1": "1 28380U 04028A   25359.11126705  .00000052  00000+0  37652-4 0  9995", "line2": "2 28380  82.9593 203.7325 0039740  21.0232 100.5296 13.76315024 75933"}}, "geometry": {"type": "Point", "coordinates": [22.260247632164006, 9.585227904752115]}}, {"type": "Feature", "properties": {"norad_id": 28521, "name": "COSMOS 2414", "group": "musson", "lat": -63.941560427356286, "lon": 9.683748196153674, "alt_km": 966.5227774319965, "timestamp": "2025-12-25T11:37:44.705196+00:00", "meta": {"OBJECT_NAME": "COSMOS 2414", "OBJECT_ID": "2005-002A", "EPOCH": "2025-12-25T00:04:31.766016", "MEAN_MOTION": 13.87904522, "ECCENTRICITY": 0.0041415, "INCLINATION": 82.9488, "RA_OF_ASC_NODE": 175.3864, "ARG_OF_PERICENTER": 105.6791, "MEAN_ANOMALY": 254.8947, "EPHEMERIS_TYPE": 0, "CLASSIFICATION_TYPE": "U", "NORAD_CAT_ID": 28521, "ELEMENT_SET_NO": 999, "REV_AT_EPOCH": 5965, "BSTAR": 4.4726e-05, "MEAN_MOTION_DOT": 7e-07, "MEAN_MOTION_DDOT": 0}, "tle": {"line1": "1 28521U 05002A   25359.00314544  .00000070  00000+0  44726-4 0  9993", "line2": "2 28521  82.9488 175.3864 0041415 105.6791 254.8947 13.87904522 59652"}}, "geometry": {"type": "Point", "coordinates": [9.683748196153674, -63.941560427356286]}}, {"type": "Feature", "properties": {"norad_id": 32052, "name": "COSMOS 2429", "group": "musson", "lat": 25.39482030655541, "lon": 150.56027860778855, "alt_km": 1005.1793809881938, "timestamp": "2025-12-25T11:37:44.705206+00:00", "meta": {"OBJECT_NAME": "COSMOS 2429", "OBJECT_ID": "2007-038A", "EPOCH": "2025-12-25T00:24:17.509248", "MEAN_MOTION": 13.75150565, "ECCENTRICITY": 0.0038511, "INCLINATION": 82.9808, "RA_OF_ASC_NODE": 334.2578, "ARG_OF_PERICENTER": 4.0546, "MEAN_ANOMALY": 356.0915, "EPHEMERIS_TYPE": 0, "CLASSIFICATION_TYPE": "U", "NORAD_CAT_ID": 32052, "ELEMENT_SET_NO": 999, "REV_AT_EPOCH": 91771, "BSTAR": 4.6346e-05, "MEAN_MOTION_DOT": 6e-07, "MEAN_MOTION_DDOT": 0}, "tle": {"line1": "1 32052U 07038A   25359.01686932  .00000060  00000+0  46346-4 0  9991", "line2": "2 32052  82.9808 334.2578 0038511   4.0546 356.0915 13.75150565917710"}}, "geometry": {"type": "Point", "coordinates": [150.56027860778855, 25.39482030655541]}}, {"type": "Feature", "properties": {"norad_id": 35635, "name": "COSMOS 2454", "group": "musson", "lat": 27.1366292842217, "lon": 162.61697215737826, "alt_km": 913.4470974700198, "timestamp": "2025-12-25T11:37:44.705217+00:00", "meta": {"OBJECT_NAME": "COSMOS 2454", "OBJECT_ID": "2009-039A", "EPOCH": "2025-12-24T23:57:14.333184", "MEAN_MOTION": 13.89930197, "ECCENTRICITY": 0.0020005, "INCLINATION": 82.9558, "RA_OF_ASC_NODE": 159.3524, "ARG_OF_PERICENTER": 40.6876, "MEAN_ANOMALY": 74.0739, "EPHEMERIS_TYPE": 0, "CLASSIFICATION_TYPE": "U", "NORAD_CAT_ID": 35635, "ELEMENT_SET_NO": 999, "REV_AT_EPOCH": 83320, "BSTAR": 5.6949e-05, "MEAN_MOTION_DOT": 8.6e-07, "MEAN_MOTION_DDOT": 0}, "tle": {"line1": "1 35635U 09039A   25358.99808256  .00000086  00000+0  56949-4 0  9993", "line2": "2 35635  82.9558 159.3524 0020005  40.6876  74.0739 13.89930197833204"}}, "geometry": {"type": "Point", "coordinates": [162.61697215737826, 27.1366292842217]}}, {"type": "Feature", "properties": {"norad_id": 36519, "name": "COSMOS 2463", "group": "musson", "lat": -49.0816058299337, "lon": 9.1508829030942, "alt_km": 987.2460412295995, "timestamp": "2025-12-25T11:37:44.705227+00:00", "meta": {"OBJECT_NAME": "COSMOS 2463", "OBJECT_ID": "2010-017A", "EPOCH": "2025-12-24T23:55:31.766880", "MEAN_MOTION": 13.71650199, "ECCENTRICITY": 0.0034804, "INCLINATION": 82.9603, "RA_OF_ASC_NODE": 17.7047, "ARG_OF_PERICENTER": 252.7721, "MEAN_ANOMALY": 170.7477, "EPHEMERIS_TYPE": 0, "CLASSIFICATION_TYPE": "U", "NORAD_CAT_ID": 36519, "ELEMENT_SET_NO": 999, "REV_AT_EPOCH": 78405, "BSTAR": 3.3999e-05, "MEAN_MOTION_DOT": 4.6e-07, "MEAN_MOTION_DDOT": 0}, "tle": {"line1": "1 36519U 10017A   25358.99689545  .00000046  00000+0  33999-4 0  9997", "line2": "2 36519  82.9603  17.7047 0034804 252.7721 170.7477 13.71650199784054"}}, "geometry": {"type": "Point", "coordinates": [9.1508829030942, -49.0816058299337]}}]}